SHENZHOU-21 (SZ-21)     
1 66263U 25246A   25316.92688707  .00053056  00000+0  61206-3 0  9992
2 66263  41.4653 197.6593 0004214  14.6230 345.4730 15.61060096258134
